Name,Organisation,Postcode,Children Only,Longitude,Latitude,,,,
Acorns Children's Hospice Birmingham,Acorn’s Children’s Hospice,B29 6HZ,yes,-1.938265900000033,52.4350952,,,,
Julia's House,Julia's House,BH15 2BB,yes,-1.9856558999999834,50.7155598,,,,
Chestnut Tree House children's hospice,Chestnut Tree House,BN18 9PX,yes,-0.4952465999999731,50.8451575,,,,
Demelza Community,Demelza,BN8 6BA,yes,0.14463309999996454,50.861898,,,,
CHSW Bristol Charlton Farm,Children’s Hospice South West,BS48 1PE,yes,-2.7319413999999824,51.4618848,,,,
Northern Ireland Children’s hospice,NI Hospice,BT36 6WB,yes,-5.922475399999939,54.67741239999999,,,,
"Jigsaw, Cumbria's Children's Hospice",Eden Valley Hospice,CA2 4SD,yes,-2.9324825999999575,54.87075919999999,,,,
Milton,East Anglia's Children's Hospices,CB24 6AB,yes,0.1656067000000121,52.2439791,,,,
Ty Hafan,Ty Hafan,CF64 5XX,yes,-3.2326544000000013,51.4018752,,,,
Claire House Children's Hospice,Claire House Children's Hospice,CH63 4JD,yes,-3.021759999999972,53.3302077,,,,
Zoe’s Place Coventry,Zoe’s Place,CV7 9JG,yes,-1.5080159999999978,52.4554854,,,,
chYps,EllenorLions Hospices,DA1 1AE,yes,0.22593289999997523,51.4427817,,,,
Butterwick Bishop Auckland,Butterwick,DL14 6JU,no,-1.6853905000000395,54.65079739999999,,,,
St. Andrew's Hospice,St. Andrew's Hospice,DN32 9RP,yes,-0.0737894999999753,53.55106079999999,,,,
Richard House Children's Hospice,Richard House Children's Hospice,E16 3RG,yes,0.04237799999998515,51.5100266,,,,
Noah's Ark Children's Hospice,Noah's Ark,EN5 5TZ,yes,-0.19891419999999016,51.6533256,,,,
Brian House Children’s Hospice,Trinity Hospice,FY2 0BG,yes,-3.0272794999999633,53.8424713,,,,
Robin house hospice,Children's Hospice Association Scotland,G83 8LX,yes,-4.584925200000043,56.0254442,,,,
Christopher’s Children’s Hospice,Chase,GU3 1LP,yes,-0.5816379000000325,51.2180181,,,,
Forget Me Not Children's Hospice,Forget Me Not Children's Hospice,HD2 1NH,yes,-1.7731361999999535,53.6759833,,,,
Haven House Children's Hospice,Haven House Children's Hospice,IG8 9LB,yes,0.01540439999996579,51.6063906,,,,
Rebecca House,Hospice Isle of Man,IM4 4RP,yes,-4.526534200000015,54.1732796,,,,
The Treehouse ,East Anglia's Children's Hospices,IP3 8NS,yes,1.1973672999999962,52.04469479999999,,,,
Rachel house hospice,Children's Hospice Association Scotland,KY13 8FX,yes,-3.4185095000000274,56.2032952,,,,
Zoe’s Place Liverpool,Zoe’s Place,L12 9HH,yes,-2.8872165000000223,53.4255509,,,,
Rainbows Hospice,Rainbows Hospice,LE11 2HS,yes,-1.2157772000000477,52.7460664,,,,
Tŷ Gobaith,Hope House Children’s Hospices,LL32 8SS,yes,-3.828672900000015,53.2451752,,,,
Martin House Hospice,Martin House Hospice,LS23 6TX,yes,-1.3437854000000016,53.9001836,,,,
Keech Hospice Care,Keech Hospice Care,LU3 3NT,yes,-0.4387358999999833,51.9281221,,,,
Francis House Children's Hospice,Francis House Children's Hospice,M20 5NA,yes,-2.224220100000025,53.4116845,,,,
Demelza Kent,Demelza,ME9 8DZ,yes,0.6912915000000339,51.3506075,,,,
St Oswald’s Hospice,St Oswald’s,NE3 1EE,yes,-1.6243058999999676,55.0088962,,,,
Quidenham,East Anglia's Children's Hospices,NR16 2PH,yes,0.989330500000051,52.450743,,,,
Helen and Douglas House,Helen and Douglas House,OX4 1RW,yes,-1.2313536999999997,51.74431870000001,,,,
CHSW Cornwall Little Harbour,Children’s Hospice South West,PL26 6AZ,yes,-4.773655400000052,50.3191932,,,,
Derian House Childrens Hospice,Derian House Childrens Hospice,PR7 1DH,yes,-2.6413542000000234,53.6667581,,,,
Bluebell Wood Children’s Hospice,Bluebell Wood,S25 4AJ,yes,-1.229519200000027,53.3604947,,,,
Demelza South East London,Demelza,SE9 5AB,yes,0.05252369999993789,51.44908520000001,,,,
Alexander Devine Children's Hospice,Alexander Devine Children's Hospice,SL1 3DR,yes,-0.6130646999999954,51.517243,,,,
Naomi House and Jack's Place,Naomi House and Jack's Place,SO21 3JE,yes,-1.3453978000000006,51.1525566,,,,
little havens care,Havens Hospices,SS0 8HX,yes,0.6798311000000012,51.5376343,,,,
Donna Louise Children's Hospice Trust,Donna Louise Children's Hospice Trust,ST4 8FN,yes,-2.1729660999999396,52.9699122,,,,
Hope House,Hope House Children’s Hospices,SY10 9BX,yes,-3.066885100000036,52.8413879,,,,
Butterwick House Children’s Hospice,Butterwick,TS19 8XN,yes,-1.3476659000000382,54.5804307,,,,
Zoe’s Place Middlesborough,Zoe’s Place,TS6 9DA,yes,-1.1549958000000515,54.5580747,,,,
Shooting Star House Children’s Hospice,Chase,TW12 3RA,yes,-0.3758156000000099,51.4264601,,,,
Acorn’s children’s hospice worcester,Acorn’s Children’s Hospice,wr5 3ez,yes,-2.2135485000000017,52.1704429,,,,
Acorn’s children’s hospice walsall,Acorn’s Children’s Hospice,WS5 4LZ,yes,-1.975909999999999,52.5649324,,,,
,,,,,,,,,
,,,,,,,,,
,,,,,,,,,
,,,,,,,,,
,,,,,,,,,
,,,,,,,,,
,,,,,,,,,
,,,,,,,,,
,,,,,,,,,
,,,,,,,,,
,,,,,,,,,
,,,,,,,,,
,,,,,,,,,
,,,,,,,,,
,,,,,,,,,
,,,,,,,,,
,,,,,,,,,
,,,,,,,,,
,,,,,,,,,
,,,,,,,,,
,,,,,,,,,
,,,,,,,,,
,,,,,,,,,
,,,,,,,,,
,,,,,,,,,
,,,,,,,,,
,,,,,,,,,
,,,,,,,,,
,,,,,,,,,
,,,,,,,,,
,,,,,,,,,
,,,,,,,,,
,,,,,,,,,
,,,,,,,,,
,,,,,,,,,
,,,,,,,,,
,,,,,,,,,
,,,,,,,,,
,,,,,,,,,
,,,,,,,,,
,,,,,,,,,
,,,,,,,,,
,,,,,,,,,
,,,,,,,,,
,,,,,,,,,
,,,,,,,,,
,,,,,,,,,
,,,,,,,,,
,,,,,,,,,
,,,,,,,,,
,,,,,,,,,
,,,,,,,,,
,,,,,,,,,
,,,,,,,,,
,,,,,,,,,